STARLINK-11274 [DTC]    
1 61001U 24158M   24272.50002315  .00015056  00000+0  95954-4 0  9993
2 61001  53.1571   0.6170 0000780  98.0685   8.9435 15.76697027  4808
STARLINK-11288 [DTC]    
1 61002U 24158N   24272.16668981  .00053101  00000+0  35329-3 0  9995
2 61002  53.1588   2.2751 0000921 115.1719 259.1363 15.74917827  4740
STARLINK-32279          
1 61003U 24158P   24272.50002315 -.01372241  00000+0 -20541-1 0  9997
2 61003  53.1598   1.1491 0001297  78.0835 128.0020 15.57239900  4838
STARLINK-32336          
1 61004U 24158Q   24272.50002315 -.01374415  00000+0 -20576-1 0  9991
2 61004  53.1596   1.1968 0001290  79.4014 103.7654 15.57241356  4845
STARLINK-32284          
1 61005U 24158R   24272.50002315 -.01375138  00000+0 -20587-1 0  9997
2 61005  53.1596   1.2200 0001396  73.1291  98.5782 15.57241742  4797
STARLINK-32282          
1 61006U 24158S   24272.50002315 -.01374024  00000+0 -20570-1 0  9993
2 61006  53.1597   1.1724 0001256  82.0468 112.5793 15.57241025  4848
STARLINK-32360          
1 61007U 24158T   24272.50002315 -.00515496  96540-4 -13447-2 0  9998
2 61007  53.1511 359.4476 0002084  18.0841 296.8402 15.94159062  4812
STARLINK-32340          
1 61008U 24158U   24272.44584868  .00000897  00000+0  13239-4 0  9994
2 61008  53.1592   1.2090 0001094 112.6731 247.4402 15.67550467  4787
STARLINK-32357          
1 61009U 24158V   24271.91668981 -.00056211  00000+0 -50461-3 0  9995
2 61009  53.1587   3.7863 0001039  82.8204 180.9934 15.67586282  4728
STARLINK-32347          
1 61010U 24158W   24272.50002315 -.01371706  00000+0 -20533-1 0  9991
2 61010  53.1600   1.1004 0001188  82.8061 146.1978 15.57239693  4790
GEESAT-3 01             
1 61011U 24159A   24271.72169872  .00013126  00000+0  12198-2 0  9993
2 61011  50.0012 135.9933 0009348 263.1403  96.8477 14.94559408  3299
GEESAT-3 02             
1 61012U 24159B   24272.44804537  .00008661  00000+0  87052-3 0  9998
2 61012  49.9935 133.1848 0009573 351.9005   8.1780 14.91837661  3391
GEESAT-3 03             
1 61013U 24159C   24272.40062687  .00010369  00000+0  94846-3 0  9994
2 61013  49.9926 132.8846 0034550  45.9036 314.4742 14.94998943  4131
GEESAT-3 04             
1 61014U 24159D   24272.42241188  .00018299  00000+0  13029-2 0  9995
2 61014  50.0040 132.3125 0008017 315.2935  44.7366 15.04585879  3436
GEESAT-3 05             
1 61015U 24159E   24271.72596016  .00012646  00000+0  12548-2 0  9996
2 61015  50.0036 136.0253 0023347 225.2786 134.6256 14.91820300  3277
GEESAT-3 06             
1 61016U 24159F   24272.49262228  .00009744  00000+0  97493-3 0  9995
2 61016  49.9983 132.7433 0012164 309.6645  50.3223 14.91871772  3373
GEESAT-3 07             
1 61017U 24159G   24272.35126619  .00009053  00000+0  90179-3 0  9991
2 61017  49.9926 133.3104 0015932 355.2957   4.7833 14.92098091  3356
GEESAT-3 08             
1 61018U 24159H   24272.44649925  .00012669  00000+0  10362-2 0  9994
2 61018  50.0046 132.4641 0017289  62.8081 297.4624 14.99499854  3375
GEESAT-3 09             
1 61019U 24159J   24272.31325315  .00012859  00000+0  10224-2 0  9993
2 61019  49.9964 133.0790 0006284  89.8353 270.3313 15.00666674  3350
GEESAT-3 10             
1 61020U 24159K   24272.54487066  .00009561  00000+0  95168-3 0  9999
2 61020  49.9985 132.3344 0030708 290.1566  69.6073 14.91818296  3397
SOYUZ-MS 26             
1 61043U 24162A   24271.79644826  .00029497  00000+0  52626-3 0  9995
2 61043  51.6371 167.1512 0007143  38.0696 322.0797 15.49795776472697
SPACEMOBILE-003         
1 61045U 24163A   24272.50575755  .00004865  00000+0  25753-3 0  9995
2 61045  52.9760 308.0751 0013037  11.0641 349.0636 15.17130772  2454
SPACEMOBILE-005         
1 61046U 24163B   24272.43745810  .00004668  00000+0  24611-3 0  9992
2 61046  52.9770 308.3693 0013587  15.1929 344.9470 15.17358232  2439
SPACEMOBILE-001         
1 61047U 24163C   24272.37111105  .00004495  00000+0  23731-3 0  9990
2 61047  52.9734 308.6522 0013332  15.6715 344.4688 15.17402322  2425
SPACEMOBILE-002         
1 61048U 24163D   24272.03906904  .00004421  00000+0  23201-3 0  9994
2 61048  52.9764 310.1475 0012606  18.1729 341.9712 15.17662532  2375
SPACEMOBILE-004         
1 61049U 24163E   24271.83975514  .00004269  00000+0  22348-3 0  9996
2 61049  52.9763 311.0473 0013124  22.2316 337.9243 15.17833002  2340
STARLINK-11286 [DTC]    
1 61050U 24164A   24272.50811110 -.00025157  00000+0 -15045-3 0  9992
2 61050  53.1614  31.2254 0000937  73.9674 286.1450 15.76686084  3635
STARLINK-11252 [DTC]    
1 61051U 24164B   24271.91668981 -.00028257  00000+0 -16921-3 0  9991
2 61051  53.1633  34.1164 0000936  81.9487 186.9432 15.76730487  3464
STARLINK-11284 [DTC]    
1 61052U 24164C   24272.58334491  .00040038  00000+0  24808-3 0  9994
2 61052  53.1598  30.7396 0000795  46.9477  75.9915 15.76672655  2618
STARLINK-11230 [DTC]    
1 61053U 24164D   24272.25001157 -.00014248  00000+0 -83204-4 0  9991
2 61053  53.1622  32.3413 0000837  83.7576 333.7082 15.76728612  3606
STARLINK-11294 [DTC]    
1 61054U 24164E   24272.58334491  .00056033  00000+0  34513-3 0  9992
2 61054  53.1632  30.6255 0001006  63.6716 114.7530 15.76660655  3602
STARLINK-11268 [DTC]    
1 61055U 24164F   24272.58334491 -.00057432  00000+0 -34918-3 0  9998
2 61055  53.1646  30.5693 0000419  25.1987 180.9073 15.76736413  3651
STARLINK-11156 [DTC]    
1 61056U 24164G   24272.58334491 -.00242393  00000+0 -15105-2 0  9997
2 61056  53.1655  30.5126 0000978  65.6982 168.0756 15.76863235  3497
STARLINK-11231 [DTC]    
1 61057U 24164H   24272.58334491 -.00984963  00000+0 -62900-2 0  9999
2 61057  53.1665  30.4598 0000981  61.4531 198.0325 15.78301020  3552
STARLINK-11299 [DTC]    
1 61058U 24164J   24272.25001157  .00036834  00000+0  21122-3 0  9999
2 61058  53.1666  32.0729 0000094 313.3652 234.8441 15.78458814  3592
STARLINK-11154 [DTC]    
1 61059U 24164K   24272.58334491 -.00507009  00000+0 -29894-2 0  9998
2 61059  53.1667  30.3608 0000988  83.5852 223.8852 15.78806648  3654
STARLINK-11297 [DTC]    
1 61060U 24164L   24271.91668981 -.00994063  00000+0 -54566-2 0  9994
2 61060  53.1664  33.6567 0000987  53.0249  80.0468 15.81602231  3386
STARLINK-11233 [DTC]    
1 61061U 24164M   24271.91668981 -.00992111  00000+0 -51518-2 0  9991
2 61061  53.1664  33.6220 0001200  68.0026  81.9067 15.82770462  3569
STARLINK-11236 [DTC]    
1 61062U 24164N   24271.91668981 -.00988055  00000+0 -48554-2 0  9990
2 61062  53.1667  33.5910 0000950  70.2414  94.4408 15.83916808  3380
STARLINK-32350          
1 61063U 24164P   24272.25001157 -.01311500  00000+0 -11245-1 0  9997
2 61063  53.1598  32.3758 0000831  75.7029 322.3439 15.71495375  3555
STARLINK-32378          
1 61064U 24164Q   24272.25001157 -.01310700  00000+0 -11237-1 0  9990
2 61064  53.1599  32.3679 0000946  67.9204 333.9592 15.71494998  3541
STARLINK-32321          
1 61065U 24164R   24272.58334491 -.01364376  00000+0 -12235-1 0  9994
2 61065  53.1595  30.7270 0001170  55.3534  70.9175 15.70548549  3641
STARLINK-32381          
1 61066U 24164S   24272.25001157 -.01315513  00000+0 -11282-1 0  9999
2 61066  53.1601  32.3643 0000921  66.5950 337.2002 15.71497718  3551
STARLINK-32368          
1 61067U 24164T   24272.58334491 -.01362291  00000+0 -12214-1 0  9997
2 61067  53.1594  30.7145 0001247  53.4743  78.5459 15.70547681  3600
STARLINK-32385          
1 61068U 24164U   24272.25001157 -.01317918  00000+0 -11305-1 0  9998
2 61068  53.1597  32.3484 0000758  73.7082 337.7525 15.71499422  3597
STARLINK-32380          
1 61069U 24164V   24272.58334491 -.01363155  00000+0 -12223-1 0  9999
2 61069  53.1600  30.7068 0001175  58.3192  77.5345 15.70547889  3609
STARLINK-32375          
1 61070U 24164W   24272.58334491 -.01363276  00000+0 -12224-1 0  9996
2 61070  53.1598  30.7110 0001225  60.8423  73.0949 15.70547810  3645
QAEM 100 R/B            
1 61071U 24165A   24271.78143311  .00005882  00000+0  42434-3 0  9999
2 61071  64.0956 295.8173 0006688 249.2859 110.7537 15.05055908  2036
CHAMRAN-1               
1 61072U 24165B   24272.42261328  .00010743  00000+0  68163-3 0  9990
2 61072  64.0904 293.5451 0020491 303.0865  56.8282 15.09137817  2130
POLARIS DAWN DEB [TRUNK]
1 61073U 24161B   24272.23795649  .03709349  11771-4  12065-2 0  9995
2 61073  51.6427 294.1465 0072675 117.3730 336.9765 16.18363415  2081
2024-166A               
1 61179U 24166A   24272.44112371  .00057032  00000+0  31774-3 0  9994
2 61179  96.7670 167.6427 0013332 195.7593 164.3263 15.79159140  1766
2024-166B               
1 61180U 24166B   24272.50434969  .00059682  00000+0  33197-3 0  9997
2 61180  96.7671 167.7050 0013400 195.2428 164.8439 15.79184892  1751
QAEM 100 DEB            
1 61181U 24165C   24271.48736809  .00137641  00000+0  83253-2 0  9990
2 61181  64.1221 296.5914 0011514 298.7769  61.2189 15.09755531  1707
2024-167A               
1 61182U 24167A   24269.90000000  .00000008  00000+0  00000+0 0  9996
2 61182  55.4050 238.5950 0013651 273.6320 132.6630  1.73084697   130
2024-167B               
1 61183U 24167B   24272.15265816 -.00000007  00000+0  00000+0 0  9996
2 61183  55.4146 238.5336 0009872   4.7965 355.1775  1.72615335   177
2024-167C               
1 61184U 24167C   24264.90000000  .00000022  00000+0  00000+0 0  9999
2 61184  55.4100 238.7340 0010570 328.7540 202.9320  1.72486994    48
2024-168A               
1 61185U 24168A   24272.09144081 -.00000079  00000+0  00000+0 0  9991
2 61185  54.9337 323.9070 0079147 294.2776  64.9642  1.80096281   155
2024-168B               
1 61186U 24168B   24271.60356008 -.00000079  00000+0  00000+0 0  9992
2 61186  54.9819 323.9259 0117754 177.1526 313.4383  1.82969102   156
